[{"OBJECT_NAME":"GAOFEN-1","OBJECT_ID":"2013-018A","EPOCH":"2026-03-09T23:41:10.925664","MEAN_MOTION":14.76548234,"ECCENTRICITY":0.00163762,"INCLINATION":97.917,"RA_OF_ASC_NODE":143.0376,"ARG_OF_PERICENTER":223.3024,"MEAN_ANOMALY":136.69,"EPHEMERIS_TYPE":0,"CLASSIFICATION_TYPE":"U","NORAD_CAT_ID":39150,"ELEMENT_SET_NO":999,"REV_AT_EPOCH":69360,"BSTAR":0.00016125455,"MEAN_MOTION_DOT":1.076e-5,"MEAN_MOTION_DDOT":0},{"OBJECT_NAME":"KUIPER-00098","OBJECT_ID":"2025-171F","EPOCH":"2026-03-09T22:36:41.125824","MEAN_MOTION":14.79916038,"ECCENTRICITY":0.0001212,"INCLINATION":51.8988,"RA_OF_ASC_NODE":161.9719,"ARG_OF_PERICENTER":176.5287,"MEAN_ANOMALY":183.5684,"EPHEMERIS_TYPE":0,"CLASSIFICATION_TYPE":"U","NORAD_CAT_ID":65137,"ELEMENT_SET_NO":999,"REV_AT_EPOCH":3220,"BSTAR":0.00080666104,"MEAN_MOTION_DOT":5.931e-5,"MEAN_MOTION_DDOT":0}]
